ONEWEB-0608             
1 54672U 22166AG  23327.31317130 -.00000247  00000+0 -62911-3 0  9993
2 54672  87.9256  70.4812 0002322  90.6997 269.4403 13.21825439 47786
ONEWEB-0610             
1 54673U 22166AH  23327.36994492  .00000057  00000+0  10684-3 0  9998
2 54673  87.9258  70.4706 0002185  93.0553 267.0831 13.21823620 47692
ONEWEB-0611             
1 54674U 22166AJ  23327.36363291  .00000075  00000+0  15107-3 0  9991
2 54674  87.9255  70.4733 0001288 112.4990 247.6281 13.21827998 47688
ONEWEB-0612             
1 54675U 22166AK  23327.30055890  .00000047  00000+0  81838-4 0  9993
2 54675  87.9249  70.4746 0002046  96.5921 263.5445 13.21824300 47666
ONEWEB-0615             
1 54676U 22166AL  23327.35733892  .00000033  00000+0  48601-4 0  9990
2 54676  87.9261  70.4811 0001723  90.9061 269.2270 13.21827301 47683
ONEWEB-0655             
1 54677U 22166AM  23327.33051678 -.00000407  00000+0 -10159-2 0  9996
2 54677  87.9256  70.4905 0001828  88.2171 271.9172 13.21825099 47672
ONEWEB-0659             
1 54678U 22166AN  23327.34786826  .00000049  00000+0  87046-4 0  9999
2 54678  87.9231  70.5049 0001622 111.9716 248.1590 13.21825785 47769
ONEWEB-0685             
1 54679U 22166AP  23327.34945415  .00000020  00000+0  16210-4 0  9995
2 54679  87.9259  70.4813 0002125  80.5546 279.5828 13.21825727 47655
ONEWEB-0712             
1 54680U 22166AQ  23327.27662146  .00000016  00000+0  75848-5 0  9994
2 54680  87.9240  55.2486 0001319 111.9211 248.2061 13.16597928 48775
ONEWEB-0714             
1 54681U 22166AR  23327.35575175 -.00000012  00000+0 -61128-4 0  9992
2 54681  87.9252  70.4675 0001793  90.9987 269.1353 13.21824120 47778
2022-167A               
1 54682U 22167A   23327.56046766  .00033005  00000+0  14249-2 0  9992
2 54682  97.5748 105.2424 0011179 141.2160 218.9880 15.22384479 52883
CAS-5A (FO-118)         
1 54684U 22167C   23327.58442390  .00021915  00000+0  10401-2 0  9992
2 54684  97.5814 104.8116 0012734 143.2430 216.9679 15.19203047 52838
DONGPO 09               
1 54685U 22167D   23327.58743087  .00012426  00000+0  67822-3 0  9997
2 54685  97.5885 104.3017 0007681 144.8578 215.3162 15.14460593 52787
DONGPO 08               
1 54686U 22167E   23327.55494905  .00012409  00000+0  67246-3 0  9998
2 54686  97.5832 103.9786 0009883 169.6655 190.4782 15.14699876 52773
2022-167F               
1 54687U 22167F   23327.56611810  .00022272  00000+0  10790-2 0  9996
2 54687  97.5745 104.3786 0013452 153.8991 206.2924 15.18476449 52819
2022-167G               
1 54688U 22167G   23327.53505319  .00031668  00000+0  13459-2 0  9994
2 54688  97.5754 105.5623 0011683 157.3751 202.8002 15.22921788 52893
DONGPO 10               
1 54689U 22167H   23327.59750762  .00012941  00000+0  70223-3 0  9991
2 54689  97.5907 104.3937 0012678 142.5085 217.7033 15.14613954 52781
