[{"OBJECT_NAME":"ONEWEB-0608","OBJECT_ID":"2022-166AG","EPOCH":"2023-11-23T07:30:58.000320","MEAN_MOTION":13.21825439,"ECCENTRICITY":0.0002322,"INCLINATION":87.9256,"RA_OF_ASC_NODE":70.4812,"ARG_OF_PERICENTER":90.6997,"MEAN_ANOMALY":269.4403,"EPHEMERIS_TYPE":0,"CLASSIFICATION_TYPE":"U","NORAD_CAT_ID":54672,"ELEMENT_SET_NO":999,"REV_AT_EPOCH":4778,"BSTAR":-0.00062911,"MEAN_MOTION_DOT":-2.47e-6,"MEAN_MOTION_DDOT":0},{"OBJECT_NAME":"ONEWEB-0610","OBJECT_ID":"2022-166AH","EPOCH":"2023-11-23T08:52:43.241088","MEAN_MOTION":13.2182362,"ECCENTRICITY":0.0002185,"INCLINATION":87.9258,"RA_OF_ASC_NODE":70.4706,"ARG_OF_PERICENTER":93.0553,"MEAN_ANOMALY":267.0831,"EPHEMERIS_TYPE":0,"CLASSIFICATION_TYPE":"U","NORAD_CAT_ID":54673,"ELEMENT_SET_NO":999,"REV_AT_EPOCH":4769,"BSTAR":0.00010684,"MEAN_MOTION_DOT":5.7e-7,"MEAN_MOTION_DDOT":0},{"OBJECT_NAME":"ONEWEB-0611","OBJECT_ID":"2022-166AJ","EPOCH":"2023-11-23T08:43:37.883424","MEAN_MOTION":13.21827998,"ECCENTRICITY":0.0001288,"INCLINATION":87.9255,"RA_OF_ASC_NODE":70.4733,"ARG_OF_PERICENTER":112.499,"MEAN_ANOMALY":247.6281,"EPHEMERIS_TYPE":0,"CLASSIFICATION_TYPE":"U","NORAD_CAT_ID":54674,"ELEMENT_SET_NO":999,"REV_AT_EPOCH":4768,"BSTAR":0.00015107,"MEAN_MOTION_DOT":7.5e-7,"MEAN_MOTION_DDOT":0},{"OBJECT_NAME":"ONEWEB-0612","OBJECT_ID":"2022-166AK","EPOCH":"2023-11-23T07:12:48.288960","MEAN_MOTION":13.218243,"ECCENTRICITY":0.0002046,"INCLINATION":87.9249,"RA_OF_ASC_NODE":70.4746,"ARG_OF_PERICENTER":96.5921,"MEAN_ANOMALY":263.5445,"EPHEMERIS_TYPE":0,"CLASSIFICATION_TYPE":"U","NORAD_CAT_ID":54675,"ELEMENT_SET_NO":999,"REV_AT_EPOCH":4766,"BSTAR":8.1838e-5,"MEAN_MOTION_DOT":4.7e-7,"MEAN_MOTION_DDOT":0},{"OBJECT_NAME":"ONEWEB-0615","OBJECT_ID":"2022-166AL","EPOCH":"2023-11-23T08:34:34.082688","MEAN_MOTION":13.21827301,"ECCENTRICITY":0.0001723,"INCLINATION":87.9261,"RA_OF_ASC_NODE":70.4811,"ARG_OF_PERICENTER":90.9061,"MEAN_ANOMALY":269.227,"EPHEMERIS_TYPE":0,"CLASSIFICATION_TYPE":"U","NORAD_CAT_ID":54676,"ELEMENT_SET_NO":999,"REV_AT_EPOCH":4768,"BSTAR":4.8601e-5,"MEAN_MOTION_DOT":3.3e-7,"MEAN_MOTION_DDOT":0},{"OBJECT_NAME":"ONEWEB-0655","OBJECT_ID":"2022-166AM","EPOCH":"2023-11-23T07:55:56.649792","MEAN_MOTION":13.21825099,"ECCENTRICITY":0.0001828,"INCLINATION":87.9256,"RA_OF_ASC_NODE":70.4905,"ARG_OF_PERICENTER":88.2171,"MEAN_ANOMALY":271.9172,"EPHEMERIS_TYPE":0,"CLASSIFICATION_TYPE":"U","NORAD_CAT_ID":54677,"ELEMENT_SET_NO":999,"REV_AT_EPOCH":4767,"BSTAR":-0.0010159,"MEAN_MOTION_DOT":-4.07e-6,"MEAN_MOTION_DDOT":0},{"OBJECT_NAME":"ONEWEB-0659","OBJECT_ID":"2022-166AN","EPOCH":"2023-11-23T08:20:55.817664","MEAN_MOTION":13.21825785,"ECCENTRICITY":0.0001622,"INCLINATION":87.9231,"RA_OF_ASC_NODE":70.5049,"ARG_OF_PERICENTER":111.9716,"MEAN_ANOMALY":248.159,"EPHEMERIS_TYPE":0,"CLASSIFICATION_TYPE":"U","NORAD_CAT_ID":54678,"ELEMENT_SET_NO":999,"REV_AT_EPOCH":4776,"BSTAR":8.7046e-5,"MEAN_MOTION_DOT":4.9e-7,"MEAN_MOTION_DDOT":0},{"OBJECT_NAME":"ONEWEB-0685","OBJECT_ID":"2022-166AP","EPOCH":"2023-11-23T08:23:12.838560","MEAN_MOTION":13.21825727,"ECCENTRICITY":0.0002125,"INCLINATION":87.9259,"RA_OF_ASC_NODE":70.4813,"ARG_OF_PERICENTER":80.5546,"MEAN_ANOMALY":279.5828,"EPHEMERIS_TYPE":0,"CLASSIFICATION_TYPE":"U","NORAD_CAT_ID":54679,"ELEMENT_SET_NO":999,"REV_AT_EPOCH":4765,"BSTAR":1.621e-5,"MEAN_MOTION_DOT":2.0e-7,"MEAN_MOTION_DDOT":0},{"OBJECT_NAME":"ONEWEB-0712","OBJECT_ID":"2022-166AQ","EPOCH":"2023-11-23T06:38:20.094144","MEAN_MOTION":13.16597928,"ECCENTRICITY":0.0001319,"INCLINATION":87.924,"RA_OF_ASC_NODE":55.2486,"ARG_OF_PERICENTER":111.9211,"MEAN_ANOMALY":248.2061,"EPHEMERIS_TYPE":0,"CLASSIFICATION_TYPE":"U","NORAD_CAT_ID":54680,"ELEMENT_SET_NO":999,"REV_AT_EPOCH":4877,"BSTAR":7.5848e-6,"MEAN_MOTION_DOT":1.6e-7,"MEAN_MOTION_DDOT":0},{"OBJECT_NAME":"ONEWEB-0714","OBJECT_ID":"2022-166AR","EPOCH":"2023-11-23T08:32:16.951200","MEAN_MOTION":13.2182412,"ECCENTRICITY":0.0001793,"INCLINATION":87.9252,"RA_OF_ASC_NODE":70.4675,"ARG_OF_PERICENTER":90.9987,"MEAN_ANOMALY":269.1353,"EPHEMERIS_TYPE":0,"CLASSIFICATION_TYPE":"U","NORAD_CAT_ID":54681,"ELEMENT_SET_NO":999,"REV_AT_EPOCH":4777,"BSTAR":-6.1128e-5,"MEAN_MOTION_DOT":-1.2e-7,"MEAN_MOTION_DDOT":0},{"OBJECT_NAME":"2022-167A","OBJECT_ID":"2022-167A","EPOCH":"2023-11-23T13:27:04.405824","MEAN_MOTION":15.22384479,"ECCENTRICITY":0.0011179,"INCLINATION":97.5748,"RA_OF_ASC_NODE":105.2424,"ARG_OF_PERICENTER":141.216,"MEAN_ANOMALY":218.988,"EPHEMERIS_TYPE":0,"CLASSIFICATION_TYPE":"U","NORAD_CAT_ID":54682,"ELEMENT_SET_NO":999,"REV_AT_EPOCH":5288,"BSTAR":0.0014249,"MEAN_MOTION_DOT":0.00033005,"MEAN_MOTION_DDOT":0},{"OBJECT_NAME":"CAS-5A (FO-118)","OBJECT_ID":"2022-167C","EPOCH":"2023-11-23T14:01:34.224960","MEAN_MOTION":15.19203047,"ECCENTRICITY":0.0012734,"INCLINATION":97.5814,"RA_OF_ASC_NODE":104.8116,"ARG_OF_PERICENTER":143.243,"MEAN_ANOMALY":216.9679,"EPHEMERIS_TYPE":0,"CLASSIFICATION_TYPE":"U","NORAD_CAT_ID":54684,"ELEMENT_SET_NO":999,"REV_AT_EPOCH":5283,"BSTAR":0.0010401,"MEAN_MOTION_DOT":0.00021915,"MEAN_MOTION_DDOT":0},{"OBJECT_NAME":"DONGPO 09","OBJECT_ID":"2022-167D","EPOCH":"2023-11-23T14:05:54.027168","MEAN_MOTION":15.14460593,"ECCENTRICITY":0.0007681,"INCLINATION":97.5885,"RA_OF_ASC_NODE":104.3017,"ARG_OF_PERICENTER":144.8578,"MEAN_ANOMALY":215.3162,"EPHEMERIS_TYPE":0,"CLASSIFICATION_TYPE":"U","NORAD_CAT_ID":54685,"ELEMENT_SET_NO":999,"REV_AT_EPOCH":5278,"BSTAR":0.00067822,"MEAN_MOTION_DOT":0.00012426,"MEAN_MOTION_DDOT":0},{"OBJECT_NAME":"DONGPO 08","OBJECT_ID":"2022-167E","EPOCH":"2023-11-23T13:19:07.597920","MEAN_MOTION":15.14699876,"ECCENTRICITY":0.0009883,"INCLINATION":97.5832,"RA_OF_ASC_NODE":103.9786,"ARG_OF_PERICENTER":169.6655,"MEAN_ANOMALY":190.4782,"EPHEMERIS_TYPE":0,"CLASSIFICATION_TYPE":"U","NORAD_CAT_ID":54686,"ELEMENT_SET_NO":999,"REV_AT_EPOCH":5277,"BSTAR":0.00067246,"MEAN_MOTION_DOT":0.00012409,"MEAN_MOTION_DDOT":0},{"OBJECT_NAME":"2022-167F","OBJECT_ID":"2022-167F","EPOCH":"2023-11-23T13:35:12.603840","MEAN_MOTION":15.18476449,"ECCENTRICITY":0.0013452,"INCLINATION":97.5745,"RA_OF_ASC_NODE":104.3786,"ARG_OF_PERICENTER":153.8991,"MEAN_ANOMALY":206.2924,"EPHEMERIS_TYPE":0,"CLASSIFICATION_TYPE":"U","NORAD_CAT_ID":54687,"ELEMENT_SET_NO":999,"REV_AT_EPOCH":5281,"BSTAR":0.001079,"MEAN_MOTION_DOT":0.00022272,"MEAN_MOTION_DDOT":0},{"OBJECT_NAME":"2022-167G","OBJECT_ID":"2022-167G","EPOCH":"2023-11-23T12:50:28.595616","MEAN_MOTION":15.22921788,"ECCENTRICITY":0.0011683,"INCLINATION":97.5754,"RA_OF_ASC_NODE":105.5623,"ARG_OF_PERICENTER":157.3751,"MEAN_ANOMALY":202.8002,"EPHEMERIS_TYPE":0,"CLASSIFICATION_TYPE":"U","NORAD_CAT_ID":54688,"ELEMENT_SET_NO":999,"REV_AT_EPOCH":5289,"BSTAR":0.0013459,"MEAN_MOTION_DOT":0.00031668,"MEAN_MOTION_DDOT":0},{"OBJECT_NAME":"DONGPO 10","OBJECT_ID":"2022-167H","EPOCH":"2023-11-23T14:20:24.658368","MEAN_MOTION":15.14613954,"ECCENTRICITY":0.0012678,"INCLINATION":97.5907,"RA_OF_ASC_NODE":104.3937,"ARG_OF_PERICENTER":142.5085,"MEAN_ANOMALY":217.7033,"EPHEMERIS_TYPE":0,"CLASSIFICATION_TYPE":"U","NORAD_CAT_ID":54689,"ELEMENT_SET_NO":999,"REV_AT_EPOCH":5278,"BSTAR":0.00070223,"MEAN_MOTION_DOT":0.00012941,"MEAN_MOTION_DDOT":0}]
